{
  "norad_id": 67313,
  "name": "STARLINK-36445",
  "history": [
    {
      "epoch": "2026-03-28T15:25:30.081792Z",
      "apogee_km": 483.8613757892099,
      "perigee_km": 482.02946678272656,
      "latitude_deg": -1.1661268793122546e-05,
      "longitude_deg": 161.13232776417698,
      "height_km": 483.1446797366547,
      "semi_major_axis_km": 6861.082421285968,
      "eccentricity": 0.0001335,
      "inclination_deg": 42.9988,
      "raan_deg": 218.5679,
      "arg_perigee_deg": 117.6699,
      "mean_anomaly_deg": 242.4288,
      "mean_motion_rev_day": 15.27614624
    }
  ]
}